{
  "type": "FeatureCollection",
  "features": [
    {
      "type": "Feature",
      "properties": {
        "stroke": "#555555",
        "stroke-width": 0,
        "stroke-opacity": 1,
        "fill": "#ffa200",
        "fill-opacity": 0.5,
        "nama_posyandu": "Matahari 1"
      },
      "geometry": {
        "coordinates": [
          [
            [
              112.70949183367577,
              -7.5473510313562
            ],
            [
              112.70879912335056,
              -7.548355660220622
            ],
            [
              112.70710583144216,
              -7.547592651169339
            ],
            [
              112.70696643317521,
              -7.54798357137658
            ],
            [
              112.70683679302073,
              -7.548503472383693
            ],
            [
              112.70659271268175,
              -7.549678206052036
            ],
            [
              112.7080037892726,
              -7.550263176956378
            ],
            [
              112.7074137026986,
              -7.552043518315358
            ],
            [
              112.70736239082225,
              -7.553188019601379
            ],
            [
              112.70979970493227,
              -7.5540527518961795
            ],
            [
              112.71050524322692,
              -7.551992651520791
            ],
            [
              112.71086442635823,
              -7.550441211422736
            ],
            [
              112.71095422214142,
              -7.549169535056734
            ],
            [
              112.71074897463762,
              -7.548368377027202
            ],
            [
              112.70949183367577,
              -7.5473510313562
            ]
          ]
        ],
        "type": "Polygon"
      },
      "id": 0
    },
    {
      "type": "Feature",
      "properties": {
        "stroke": "#ffffff",
        "stroke-width": 0,
        "stroke-opacity": 1,
        "fill": "#ff0000",
        "fill-opacity": 0.5,
        "nama_posyandu": "Matahari 2"
      },
      "geometry": {
        "coordinates": [
          [
            [
              112.70800696044535,
              -7.550270883482284
            ],
            [
              112.70690346572155,
              -7.54980722616898
            ],
            [
              112.70659079742256,
              -7.549674576165955
            ],
            [
              112.70677165613688,
              -7.548801211301051
            ],
            [
              112.70697424963883,
              -7.547962859367425
            ],
            [
              112.70661597018815,
              -7.5480360876981685
            ],
            [
              112.70642236567608,
              -7.548692957581544
            ],
            [
              112.7060613721635,
              -7.548578238455257
            ],
            [
              112.705537997348,
              -7.54841056439451
            ],
            [
              112.70551815664291,
              -7.548480923482977
            ],
            [
              112.70535851837707,
              -7.54887221855302
            ],
            [
              112.70531292067724,
              -7.54903066801042
            ],
            [
              112.7053071168399,
              -7.5490571519104
            ],
            [
              112.70536412330881,
              -7.549103830160507
            ],
            [
              112.70581259363378,
              -7.549255770294465
            ],
            [
              112.70571037121081,
              -7.549294372284404
            ],
            [
              112.70568272324682,
              -7.550109685248172
            ],
            [
              112.70571961837322,
              -7.550893214890607
            ],
            [
              112.70550204835187,
              -7.551960562702668
            ],
            [
              112.70573962777246,
              -7.552211469411095
            ],
            [
              112.70563763422163,
              -7.552610492071224
            ],
            [
              112.70527065209528,
              -7.553549920637231
            ],
            [
              112.70501746420916,
              -7.553315674299303
            ],
            [
              112.70458428602245,
              -7.553723770388801
            ],
            [
              112.70416790540486,
              -7.55332664923365
            ],
            [
              112.70398569403469,
              -7.553604670482863
            ],
            [
              112.70361863804703,
              -7.553291592849893
            ],
            [
              112.70321878704615,
              -7.553640545948315
            ],
            [
              112.70349412753052,
              -7.554368338962135
            ],
            [
              112.70148297715917,
              -7.557535690982064
            ],
            [
              112.70295029108883,
              -7.558278775022956
            ],
            [
              112.70413606032912,
              -7.558864562977433
            ],
            [
              112.70614992989442,
              -7.556631499507475
            ],
            [
              112.7082466255186,
              -7.557805361856097
            ],
            [
              112.7090453167138,
              -7.555428918556153
            ],
            [
              112.70989110841862,
              -7.554027455265
            ],
            [
              112.7089373593833,
              -7.553693110493839
            ],
            [
              112.7073754863053,
              -7.553162931499884
            ],
            [
              112.70745574628972,
              -7.552080892829423
            ],
            [
              112.70800696044535,
              -7.550270883482284
            ]
          ]
        ],
        "type": "Polygon"
      }
    },
    {
      "type": "Feature",
      "properties": {
        "stroke": "#555555",
        "stroke-width": 0,
        "stroke-opacity": 1,
        "fill": "#006644",
        "fill-opacity": 0.5,
        "nama_posyandu": "Durian 2"
      },
      "geometry": {
        "coordinates": [
          [
            [
              112.69449590164231,
              -7.547376925818213
            ],
            [
              112.69438954440852,
              -7.547946278876452
            ],
            [
              112.69428318717485,
              -7.548352206061281
            ],
            [
              112.69419278352558,
              -7.548689599794997
            ],
            [
              112.69400665836753,
              -7.5493432994054075
            ],
            [
              112.6939003011338,
              -7.549659605313934
            ],
            [
              112.69382585107007,
              -7.549996998027325
            ],
            [
              112.69376873975017,
              -7.5503140465150125
            ],
            [
              112.6936977798137,
              -7.5503931843011
            ],
            [
              112.69317888528315,
              -7.550652580276932
            ],
            [
              112.69282408560315,
              -7.550824045327985
            ],
            [
              112.69275756066395,
              -7.551197750972975
            ],
            [
              112.69263338077576,
              -7.551562663231849
            ],
            [
              112.69252250587493,
              -7.552134211934117
            ],
            [
              112.69250920088751,
              -7.552222142436705
            ],
            [
              112.69285513057525,
              -7.55235403815756
            ],
            [
              112.69328089019166,
              -7.552529899054278
            ],
            [
              112.69375099976548,
              -7.552714552920307
            ],
            [
              112.69522442876703,
              -7.553282869635787
            ],
            [
              112.69564694448792,
              -7.552232090066283
            ],
            [
              112.69640224531355,
              -7.550279250000543
            ],
            [
              112.69729341096513,
              -7.547566831459591
            ],
            [
              112.69774509193445,
              -7.546554485932191
            ],
            [
              112.6959580063587,
              -7.546593422342795
            ],
            [
              112.69505464442244,
              -7.547060658992081
            ],
            [
              112.69449590164231,
              -7.547376925818213
            ]
          ]
        ],
        "type": "Polygon"
      }
    },
    {
      "type": "Feature",
      "properties": {
        "stroke": "#555555",
        "stroke-width": 0,
        "stroke-opacity": 1,
        "fill": "#555555",
        "fill-opacity": 0.5,
        "nama_posyandu": "Anggrek 2"
      },
      "geometry": {
        "coordinates": [
          [
            [
              112.69983549105194,
              -7.546424706312436
            ],
            [
              112.69978814925071,
              -7.546969473817072
            ],
            [
              112.69970591494405,
              -7.547766592379361
            ],
            [
              112.6997809133261,
              -7.548763736808922
            ],
            [
              112.70011373199054,
              -7.550236969452655
            ],
            [
              112.70042525968722,
              -7.550519107388638
            ],
            [
              112.70105216109886,
              -7.551155823407171
            ],
            [
              112.70167137046832,
              -7.550816495825089
            ],
            [
              112.7022559656491,
              -7.550526732736003
            ],
            [
              112.70292132726962,
              -7.5501607159246475
            ],
            [
              112.70208038647598,
              -7.549775693285525
            ],
            [
              112.70106526143735,
              -7.549463605034475
            ],
            [
              112.70094318943899,
              -7.5491387782494
            ],
            [
              112.70111797373386,
              -7.54827446759036
            ],
            [
              112.70098928989006,
              -7.547861826620121
            ],
            [
              112.70054110124295,
              -7.547882264026484
            ],
            [
              112.70061986703138,
              -7.546606901295078
            ],
            [
              112.70021947427131,
              -7.546512550331784
            ],
            [
              112.69983549105194,
              -7.546424706312436
            ]
          ]
        ],
        "type": "Polygon"
      },
      "id": 3
    },
    {
      "type": "Feature",
      "properties": {
        "stroke": "#555555",
        "stroke-width": 0,
        "stroke-opacity": 1,
        "fill": "#00ff33",
        "fill-opacity": 0.5,
        "nama_posyandu": "Anggrek 1"
      },
      "geometry": {
        "coordinates": [
          [
            [
              112.70094100361348,
              -7.549133141157299
            ],
            [
              112.70107234115119,
              -7.549469763527753
            ],
            [
              112.70160842185066,
              -7.549641139568877
            ],
            [
              112.70213262527255,
              -7.5497893970433125
            ],
            [
              112.70292520074125,
              -7.550160917509572
            ],
            [
              112.70319693006024,
              -7.549671886806195
            ],
            [
              112.70373309328716,
              -7.548839178533441
            ],
            [
              112.70446461358728,
              -7.548798280900826
            ],
            [
              112.70517964815593,
              -7.548959391518146
            ],
            [
              112.70530609743628,
              -7.549058443352621
            ],
            [
              112.70534263783702,
              -7.548910398475705
            ],
            [
              112.70539524772414,
              -7.5487795092146825
            ],
            [
              112.70553878704891,
              -7.548400092147617
            ],
            [
              112.70505270019359,
              -7.54795826931479
            ],
            [
              112.70460946015089,
              -7.547646704849399
            ],
            [
              112.704611715397,
              -7.547109363432469
            ],
            [
              112.70414711618236,
              -7.546934923851765
            ],
            [
              112.70403637894867,
              -7.546767643082262
            ],
            [
              112.703556517604,
              -7.5466630925682665
            ],
            [
              112.70309247586465,
              -7.546600362247958
            ],
            [
              112.70264952693122,
              -7.5466630925682665
            ],
            [
              112.70201146953804,
              -7.546757188031577
            ],
            [
              112.70165816503112,
              -7.54668400267262
            ],
            [
              112.70120994289584,
              -7.546668320094753
            ],
            [
              112.7007023236738,
              -7.546646865946158
            ],
            [
              112.70061051993696,
              -7.546604714591155
            ],
            [
              112.70058913680953,
              -7.5469812873204205
            ],
            [
              112.70055838964078,
              -7.547233249143133
            ],
            [
              112.70055739470399,
              -7.54740055965506
            ],
            [
              112.70054793144752,
              -7.547526798768665
            ],
            [
              112.70053558801936,
              -7.547638472053919
            ],
            [
              112.70053431235459,
              -7.547712056450834
            ],
            [
              112.70053721017928,
              -7.547876626946248
            ],
            [
              112.70099966346368,
              -7.54785757627927
            ],
            [
              112.7011268265183,
              -7.548314392460362
            ],
            [
              112.70094100361348,
              -7.549133141157299
            ]
          ]
        ],
        "type": "Polygon"
      },
      "id": 4
    },
    {
      "type": "Feature",
      "properties": {
        "stroke": "#555555",
        "stroke-width": 0,
        "stroke-opacity": 1,
        "fill": "#ffffff",
        "fill-opacity": 1,
        "nama_posyandu": "Durian 1"
      },
      "geometry": {
        "coordinates": [
          [
            [
              112.69746718670592,
              -7.54764395782307
            ],
            [
              112.69725013798347,
              -7.547732415943813
            ],
            [
              112.69672779340397,
              -7.549264170102859
            ],
            [
              112.69925634573428,
              -7.550411579173655
            ],
            [
              112.69940253797495,
              -7.550459168941906
            ],
            [
              112.69980201373801,
              -7.550440683070079
            ],
            [
              112.69990074654288,
              -7.550285958839915
            ],
            [
              112.69986839401577,
              -7.549977058018186
            ],
            [
              112.69887628982372,
              -7.549152854135414
            ],
            [
              112.69769588708454,
              -7.547948206127032
            ],
            [
              112.69746718670592,
              -7.54764395782307
            ]
          ]
        ],
        "type": "Polygon"
      }
    },
    {
      "type": "Feature",
      "properties": {
        "stroke": "#555555",
        "stroke-width": 2,
        "stroke-opacity": 1,
        "fill": "#523232",
        "fill-opacity": 0.8,
        "nama_posyandu": "Strawberry"
      },
      "geometry": {
        "coordinates": [
          [
            [
              112.6977294921657,
              -7.546475307710651
            ],
            [
              112.69726669351269,
              -7.547709516195809
            ],
            [
              112.69749483369287,
              -7.547625512588638
            ],
            [
              112.7001005352862,
              -7.550241195896007
            ],
            [
              112.7001091196276,
              -7.550093690664369
            ],
            [
              112.69989164963584,
              -7.549333470595826
            ],
            [
              112.6997701986869,
              -7.548718529137005
            ],
            [
              112.69971399194833,
              -7.547932262604618
            ],
            [
              112.69974352921378,
              -7.54737346289717
            ],
            [
              112.69978259714901,
              -7.546901447162682
            ],
            [
              112.69982647938514,
              -7.5465616543366565
            ],
            [
              112.69984888628619,
              -7.54643115397981
            ],
            [
              112.69949597758688,
              -7.546439483790607
            ],
            [
              112.69882377053932,
              -7.546472803033623
            ],
            [
              112.69798755899649,
              -7.546499794862271
            ],
            [
              112.69790285996078,
              -7.5465011364963175
            ],
            [
              112.6977294921657,
              -7.546475307710651
            ]
          ]
        ],
        "type": "Polygon"
      }
    },
    {
      "type": "Feature",
      "properties": {
        "stroke": "#555555",
        "stroke-width": 0,
        "stroke-opacity": 1,
        "fill": "#001eff",
        "fill-opacity": 0.5,
        "nama_posyandu": "Dahlia"
      },
      "geometry": {
        "coordinates": [
          [
            [
              112.70169520860844,
              -7.553665859308367
            ],
            [
              112.70148602913423,
              -7.553901685256321
            ],
            [
              112.70151474004075,
              -7.554088719536651
            ],
            [
              112.70126939753237,
              -7.55451674865094
            ],
            [
              112.70114230949787,
              -7.554759649697047
            ],
            [
              112.70192866065895,
              -7.555141626083767
            ],
            [
              112.70246747333204,
              -7.555487242790676
            ],
            [
              112.70269461985202,
              -7.555623394750683
            ],
            [
              112.70303798086934,
              -7.555068313413372
            ],
            [
              112.70249388571892,
              -7.554586544127446
            ],
            [
              112.70203959268025,
              -7.55413619409164
            ],
            [
              112.70187055341023,
              -7.553926728799965
            ],
            [
              112.70169520860844,
              -7.553665859308367
            ]
          ]
        ],
        "type": "Polygon"
      }
    },
    {
      "type": "Feature",
      "properties": {
        "stroke": "#555555",
        "stroke-width": 0,
        "stroke-opacity": 1,
        "fill": "#ff8800",
        "fill-opacity": 0.5,
        "nama_posyandu": "Melati"
      },
      "geometry": {
        "coordinates": [
          [
            [
              112.69987802333577,
              -7.550049747253709
            ],
            [
              112.69993606718049,
              -7.550591626405378
            ],
            [
              112.69959940837083,
              -7.5507523158687775
            ],
            [
              112.69951212506385,
              -7.550884876120904
            ],
            [
              112.69925904573466,
              -7.551801814912324
            ],
            [
              112.69931601096408,
              -7.551940706747686
            ],
            [
              112.6991472095238,
              -7.552333949172379
            ],
            [
              112.69922317017057,
              -7.55247618570499
            ],
            [
              112.69895244577805,
              -7.553166345171178
            ],
            [
              112.69878386622014,
              -7.553420134091265
            ],
            [
              112.69868792166898,
              -7.553637920641357
            ],
            [
              112.69861725095245,
              -7.55383456960414
            ],
            [
              112.69836499271668,
              -7.5539232115647685
            ],
            [
              112.6987986670116,
              -7.554067092585186
            ],
            [
              112.69919073275577,
              -7.554237629156518
            ],
            [
              112.69960834101636,
              -7.554449951825177
            ],
            [
              112.69989451769419,
              -7.554543819147398
            ],
            [
              112.70113989149763,
              -7.554762459158752
            ],
            [
              112.70152500083418,
              -7.554045223173063
            ],
            [
              112.7014805797852,
              -7.5539241254433875
            ],
            [
              112.70170823766006,
              -7.5536709209909105
            ],
            [
              112.70144726399877,
              -7.553340654090661
            ],
            [
              112.70089755352114,
              -7.5524048965029635
            ],
            [
              112.70066707463451,
              -7.551744533544891
            ],
            [
              112.70022871280287,
              -7.55035394015421
            ],
            [
              112.69987802333577,
              -7.550049747253709
            ]
          ]
        ],
        "type": "Polygon"
      }
    },
    {
      "type": "Feature",
      "properties": {
        "stroke": "#00d5ff",
        "stroke-width": 0,
        "stroke-opacity": 1,
        "fill": "#00fbff",
        "fill-opacity": 0.5,
        "nama_posyandu": "Ceria"
      },
      "geometry": {
        "coordinates": [
          [
            [
              112.70022783548745,
              -7.550341508338761
            ],
            [
              112.70045103082867,
              -7.551124428308739
            ],
            [
              112.70085163785092,
              -7.5521910126519884
            ],
            [
              112.70152122387435,
              -7.553427793328069
            ],
            [
              112.70213535306536,
              -7.55423750666165
            ],
            [
              112.703038684148,
              -7.555058246605427
            ],
            [
              112.70349071314271,
              -7.55439120767452
            ],
            [
              112.70321973740852,
              -7.55361390267889
            ],
            [
              112.70360868971571,
              -7.553287992033013
            ],
            [
              112.70398113626548,
              -7.553588155187459
            ],
            [
              112.70416448926898,
              -7.553325960215375
            ],
            [
              112.70458014558636,
              -7.553723560775772
            ],
            [
              112.70501026368578,
              -7.55330535007322
            ],
            [
              112.70526636087806,
              -7.553550527618599
            ],
            [
              112.70541956124492,
              -7.553165258803639
            ],
            [
              112.70555640029181,
              -7.552816431498002
            ],
            [
              112.70573668733144,
              -7.5522071646166395
            ],
            [
              112.70551305192585,
              -7.551969495835284
            ],
            [
              112.70565317184105,
              -7.551188367199316
            ],
            [
              112.70570409291737,
              -7.550804684319939
            ],
            [
              112.70569664916619,
              -7.5503978579509194
            ],
            [
              112.70567998346927,
              -7.549840598703344
            ],
            [
              112.70571678056308,
              -7.5492891253487215
            ],
            [
              112.70581758106493,
              -7.54924998827245
            ],
            [
              112.70536750293897,
              -7.5491031300642035
            ],
            [
              112.70517423004475,
              -7.548956271855957
            ],
            [
              112.7044666777187,
              -7.54879563100269
            ],
            [
              112.70415600620419,
              -7.548808567117845
            ],
            [
              112.70381838786466,
              -7.548821825170641
            ],
            [
              112.70364419103583,
              -7.548869798619691
            ],
            [
              112.70294334309636,
              -7.55017111903237
            ],
            [
              112.70105216611876,
              -7.551161649107527
            ],
            [
              112.70080697847521,
              -7.550890149854212
            ],
            [
              112.70022783548745,
              -7.550341508338761
            ]
          ]
        ],
        "type": "Polygon"
      }
    },
    {
      "type": "Feature",
      "properties": {
        "stroke": "#555555",
        "stroke-width": 0,
        "stroke-opacity": 1,
        "fill": "#770080",
        "fill-opacity": 0.5,
        "nama_posyandu": "Tanjung"
      },
      "geometry": {
        "coordinates": [
          [
            [
              112.69533215200363,
              -7.553152154625437
            ],
            [
              112.69532406568146,
              -7.553304461632038
            ],
            [
              112.69639954649011,
              -7.553512881659543
            ],
            [
              112.69834026373707,
              -7.553913689122638
            ],
            [
              112.6985990260365,
              -7.553849559953136
            ],
            [
              112.69881735672709,
              -7.553368590882442
            ],
            [
              112.69905186006201,
              -7.552951750587695
            ],
            [
              112.69916473740358,
              -7.55260956962465
            ],
            [
              112.69924993243768,
              -7.55246880971643
            ],
            [
              112.69914343864633,
              -7.552313973764768
            ],
            [
              112.69932802788378,
              -7.551933921647247
            ],
            [
              112.69925507680108,
              -7.551779211275246
            ],
            [
              112.69946898501331,
              -7.551054126627818
            ],
            [
              112.69950657611611,
              -7.550879320998959
            ],
            [
              112.69959513743595,
              -7.550745436093621
            ],
            [
              112.69992534259546,
              -7.550591949155617
            ],
            [
              112.6999024856633,
              -7.550277244255668
            ],
            [
              112.69979090963238,
              -7.550444214521434
            ],
            [
              112.69937444466615,
              -7.550459092143612
            ],
            [
              112.69890920452275,
              -7.550280560640317
            ],
            [
              112.69836892564746,
              -7.550042518520698
            ],
            [
              112.69784269125421,
              -7.549693116977238
            ],
            [
              112.69716688660253,
              -7.549373690989725
            ],
            [
              112.69689884593856,
              -7.549257793007243
            ],
            [
              112.69533215200363,
              -7.553152154625437
            ]
          ]
        ],
        "type": "Polygon"
      }
    },
    {
      "type": "Feature",
      "properties": {
        "stroke": "#555555",
        "stroke-width": 0,
        "stroke-opacity": 1,
        "fill": "#ffd500",
        "fill-opacity": 0.5,
        "nama_posyandu": "Kamboja"
      },
      "geometry": {
        "coordinates": [
          [
            [
              112.69106213370645,
              -7.551610296138406
            ],
            [
              112.69251089746433,
              -7.552217114691345
            ],
            [
              112.69262366641198,
              -7.551613444314583
            ],
            [
              112.69284920430727,
              -7.550830907384579
            ],
            [
              112.69371752520294,
              -7.550361384547145
            ],
            [
              112.693909232414,
              -7.549690636750967
            ],
            [
              112.69419115478246,
              -7.54866215477621
            ],
            [
              112.69451818473021,
              -7.547365369669791
            ],
            [
              112.6943264775204,
              -7.547454803250872
            ],
            [
              112.69363858693941,
              -7.547846074947799
            ],
            [
              112.6928266505169,
              -7.548170271228628
            ],
            [
              112.6922176982007,
              -7.548650975611807
            ],
            [
              112.69209881713635,
              -7.548999394666737
            ],
            [
              112.6919755358644,
              -7.54949935574345
            ],
            [
              112.6918746693687,
              -7.549999316241909
            ],
            [
              112.69175138809538,
              -7.550321512701274
            ],
            [
              112.69153844771523,
              -7.550754811009469
            ],
            [
              112.69132550733508,
              -7.551154778293139
            ],
            [
              112.69106213370645,
              -7.551610296138406
            ]
          ]
        ],
        "type": "Polygon"
      }
    },
    {
      "type": "Feature",
      "properties": {
        "stroke": "#555555",
        "stroke-width": 0,
        "stroke-opacity": 1,
        "fill": "#ff00ea",
        "fill-opacity": 0.5,
        "nama_posyandu": "Sakura"
      },
      "geometry": {
        "coordinates": [
          [
            [
              112.7047766407959,
              -7.546793959855933
            ],
            [
              112.70419864853801,
              -7.5469619039320435
            ],
            [
              112.70461978029525,
              -7.547107998648372
            ],
            [
              112.70460654238768,
              -7.547636768481475
            ],
            [
              112.70507720455691,
              -7.547973655277701
            ],
            [
              112.70558124584656,
              -7.548422492135771
            ],
            [
              112.70641963043441,
              -7.548693491310061
            ],
            [
              112.70661507443504,
              -7.548031987833923
            ],
            [
              112.70697213676874,
              -7.547964649754761
            ],
            [
              112.70711165214999,
              -7.547569488104557
            ],
            [
              112.70876590594992,
              -7.5483400529872
            ],
            [
              112.70949337900754,
              -7.547312632838597
            ],
            [
              112.70788895212877,
              -7.546581582400535
            ],
            [
              112.70693227522992,
              -7.54606787054243
            ],
            [
              112.70566667141935,
              -7.546275331173334
            ],
            [
              112.70521822912411,
              -7.546522307986663
            ],
            [
              112.7047766407959,
              -7.546793959855933
            ]
          ]
        ],
        "type": "Polygon"
      },
      "id": 12
    }
  ]
}